start=new Date('2022-12-05T00:00:00.000Z').valueOf();
sats=[{"OBJECT_TYPE":"PAYLOAD","RCS_SIZE":"LARGE","CLASSIFICATION_TYPE":"U","ECCENTRICITY":"0.00017970","MEAN_ELEMENT_THEORY":"SGP4","MEAN_MOTION_DDOT":"0.0000000000000","LAUNCH_DATE":"2020-08-18","REF_FRAME":"TEME","MEAN_MOTION_DOT":"-0.00000049","CENTER_NAME":"EARTH","SITE":"AFETR","TLE_LINE2":"2 46173  53.0548 264.0400 0001797  59.0785 301.0380 15.06397735127182","SEMIMAJOR_AXIS":"6925.355","COUNTRY_CODE":"US","ARG_OF_PERICENTER":"59.0785","PERIAPSIS":"545.976","RA_OF_ASC_NODE":"264.0400","BSTAR":"0.00001562700000","NORAD_CAT_ID":"46173","OBJECT_ID":"2020-057BJ","ELEMENT_SET_NO":"999","PERIOD":"95.592","EPHEMERIS_TYPE":"0","OBJECT_NAME":"STARLINK-1640","TLE_LINE1":"1 46173U 20057BJ  22338.50796354 -.00000049  00000-0  15627-4 0  9991","DECAY_DATE":null,"MEAN_MOTION":"15.06397735","APOAPSIS":"548.465","EPOCH":"2022-12-04T12:11:28.049856","INCLINATION":"53.0548","TIME_SYSTEM":"UTC","FILE":"3681260","GP_ID":"219525545","REV_AT_EPOCH":"12718","MEAN_ANOMALY":"301.0380"},{"EPOCH":"2022-12-04T12:22:05.372544","APOAPSIS":"548.515","INCLINATION":"53.0548","TIME_SYSTEM":"UTC","MEAN_MOTION":"15.06393125","REV_AT_EPOCH":"12652","MEAN_ANOMALY":"306.7397","GP_ID":"219517213","FILE":"3681207","ELEMENT_SET_NO":"999","PERIOD":"95.593","OBJECT_ID":"2020-057BK","NORAD_CAT_ID":"46174","TLE_LINE1":"1 46174U 20057BK  22338.51533996 -.00000562  00000-0 -18846-4 0  9991","DECAY_DATE":null,"OBJECT_NAME":"STARLINK-1641","EPHEMERIS_TYPE":"0","SITE":"AFETR","TLE_LINE2":"2 46174  53.0548 264.0076 0001849  53.3761 306.7397 15.06393125126527","SEMIMAJOR_AXIS":"6925.370","MEAN_MOTION_DOT":"-0.00000562","CENTER_NAME":"EARTH","REF_FRAME":"TEME","BSTAR":"-0.00001884600000","RA_OF_ASC_NODE":"264.0076","ARG_OF_PERICENTER":"53.3761","PERIAPSIS":"545.954","COUNTRY_CODE":"US","RCS_SIZE":"LARGE","CLASSIFICATION_TYPE":"U","ECCENTRICITY":"0.00018490","OBJECT_TYPE":"PAYLOAD","LAUNCH_DATE":"2020-08-18","MEAN_ELEMENT_THEORY":"SGP4","MEAN_MOTION_DDOT":"0.0000000000000"},{"ARG_OF_PERICENTER":"52.3931","PERIAPSIS":"546.002","COUNTRY_CODE":"US","BSTAR":"-0.00003678100000","RA_OF_ASC_NODE":"280.1541","MEAN_MOTION_DOT":"-0.00000829","CENTER_NAME":"EARTH","REF_FRAME":"TEME","SITE":"AFETR","TLE_LINE2":"2 46325  53.0534 280.1541 0001764  52.3931 307.7218 15.06396552125978","SEMIMAJOR_AXIS":"6925.359","MEAN_MOTION_DDOT":"0.0000000000000","MEAN_ELEMENT_THEORY":"SGP4","LAUNCH_DATE":"2020-09-03","CLASSIFICATION_TYPE":"U","RCS_SIZE":"LARGE","ECCENTRICITY":"0.00017640","OBJECT_TYPE":"PAYLOAD","GP_ID":"219518724","FILE":"3681207","REV_AT_EPOCH":"12597","MEAN_ANOMALY":"307.7218","MEAN_MOTION":"15.06396552","APOAPSIS":"548.446","EPOCH":"2022-12-04T06:16:30.505152","INCLINATION":"53.0534","TIME_SYSTEM":"UTC","EPHEMERIS_TYPE":"0","TLE_LINE1":"1 46325U 20062A   22338.26146418 -.00000829  00000-0 -36781-4 0  9990","DECAY_DATE":null,"OBJECT_NAME":"STARLINK-1734","NORAD_CAT_ID":"46325","ELEMENT_SET_NO":"999","PERIOD":"95.592","OBJECT_ID":"2020-062A"},{"EPHEMERIS_TYPE":"0","TLE_LINE1":"1 46326U 20062B   22338.65726711  .00000307  00000-0  39502-4 0  9997","DECAY_DATE":null,"OBJECT_NAME":"STARLINK-1654","NORAD_CAT_ID":"46326","ELEMENT_SET_NO":"999","PERIOD":"95.592","OBJECT_ID":"2020-062B","GP_ID":"219525190","FILE":"3681248","REV_AT_EPOCH":"12497","MEAN_ANOMALY":"301.2545","MEAN_MOTION":"15.06404592","EPOCH":"2022-12-04T15:46:27.878304","APOAPSIS":"548.495","INCLINATION":"53.0549","TIME_SYSTEM":"UTC","MEAN_MOTION_DDOT":"0.0000000000000","MEAN_ELEMENT_THEORY":"SGP4","LAUNCH_DATE":"2020-09-03","CLASSIFICATION_TYPE":"U","RCS_SIZE":"LARGE","ECCENTRICITY":"0.00018700","OBJECT_TYPE":"PAYLOAD","ARG_OF_PERICENTER":"58.8627","PERIAPSIS":"545.904","COUNTRY_CODE":"US","BSTAR":"0.00003950200000","RA_OF_ASC_NODE":"323.6174","MEAN_MOTION_DOT":"0.00000307","CENTER_NAME":"EARTH","REF_FRAME":"TEME","SITE":"AFETR","TLE_LINE2":"2 46326  53.0549 323.6174 0001870  58.8627 301.2545 15.06404592124976","SEMIMAJOR_AXIS":"6925.334"},{"SEMIMAJOR_AXIS":"6925.348","SITE":"AFETR","TLE_LINE2":"2 46327  53.0547 324.7545 0001432  69.3348 290.7795 15.06400199124743","CENTER_NAME":"EARTH","MEAN_MOTION_DOT":"0.00002435","REF_FRAME":"TEME","BSTAR":"0.00018230000000","RA_OF_ASC_NODE":"324.7545","PERIAPSIS":"546.221","ARG_OF_PERICENTER":"69.3348","COUNTRY_CODE":"US","ECCENTRICITY":"0.00014320","CLASSIFICATION_TYPE":"U","RCS_SIZE":"LARGE","OBJECT_TYPE":"PAYLOAD","LAUNCH_DATE":"2020-09-03","MEAN_ELEMENT_THEORY":"SGP4","MEAN_MOTION_DDOT":"0.0000000000000","INCLINATION":"53.0547","TIME_SYSTEM":"UTC","EPOCH":"2022-12-04T08:20:35.389248","APOAPSIS":"548.205","MEAN_MOTION":"15.06400199","MEAN_ANOMALY":"290.7795","REV_AT_EPOCH":"12474","GP_ID":"219517725","FILE":"3681207","PERIOD":"95.592","ELEMENT_SET_NO":"999","OBJECT_ID":"2020-062C","NORAD_CAT_ID":"46327","DECAY_DATE":null,"TLE_LINE1":"1 46327U 20062C   22338.34763182  .00002435  00000-0  18230-3 0  9995","OBJECT_NAME":"STARLINK-1673","EPHEMERIS_TYPE":"0"},{"EPHEMERIS_TYPE":"0","OBJECT_NAME":"STARLINK-1686","TLE_LINE1":"1 46328U 20062D   22338.32734430 -.00000252  00000-0  20150-5 0  9990","DECAY_DATE":null,"NORAD_CAT_ID":"46328","OBJECT_ID":"2020-062D","ELEMENT_SET_NO":"999","PERIOD":"95.592","FILE":"3681207","GP_ID":"219517975","REV_AT_EPOCH":"12502","MEAN_ANOMALY":"312.9690","MEAN_MOTION":"15.06404931","APOAPSIS":"548.609","EPOCH":"2022-12-04T07:51:22.547520","INCLINATION":"53.0553","TIME_SYSTEM":"UTC","MEAN_ELEMENT_THEORY":"SGP4","MEAN_MOTION_DDOT":"0.0000000000000","LAUNCH_DATE":"2020-09-03","OBJECT_TYPE":"PAYLOAD","RCS_SIZE":"LARGE","CLASSIFICATION_TYPE":"U","ECCENTRICITY":"0.00020370","COUNTRY_CODE":"US","ARG_OF_PERICENTER":"47.1470","PERIAPSIS":"545.788","RA_OF_ASC_NODE":"304.8634","BSTAR":"0.00000201500000","REF_FRAME":"TEME","MEAN_MOTION_DOT":"-0.00000252","CENTER_NAME":"EARTH","SITE":"AFETR","TLE_LINE2":"2 46328  53.0553 304.8634 0002037  47.1470 312.9690 15.06404931125022","SEMIMAJOR_AXIS":"6925.333"},{"RA_OF_ASC_NODE":"305.0150","BSTAR":"0.00004958300000","COUNTRY_CODE":"US","ARG_OF_PERICENTER":"57.0132","PERIAPSIS":"546.055","SITE":"AFETR","TLE_LINE2":"2 46329  53.0556 305.0150 0001668  57.0132 303.1017 15.06401057125016","SEMIMAJOR_AXIS":"6925.345","REF_FRAME":"TEME","MEAN_MOTION_DOT":"0.00000457","CENTER_NAME":"EARTH","LAUNCH_DATE":"2020-09-03","MEAN_MOTION_DDOT":"0.0000000000000","MEAN_ELEMENT_THEORY":"SGP4","OBJECT_TYPE":"PAYLOAD","CLASSIFICATION_TYPE":"U","RCS_SIZE":"LARGE","ECCENTRICITY":"0.00016680","REV_AT_EPOCH":"12501","MEAN_ANOMALY":"303.1017","FILE":"3681207","GP_ID":"219518225","APOAPSIS":"548.365","EPOCH":"2022-12-04T07:03:36.875520","INCLINATION":"53.0556","TIME_SYSTEM":"UTC","MEAN_MOTION":"15.06401057","OBJECT_NAME":"STARLINK-1695","TLE_LINE1":"1 46329U 20062E   22338.29417680  .00000457  00000-0  49583-4 0  9998","DECAY_DATE":null,"EPHEMERIS_TYPE":"0","OBJECT_ID":"2020-062E","ELEMENT_SET_NO":"999","PERIOD":"95.592","NORAD_CAT_ID":"46329"},{"REV_AT_EPOCH":"12502","MEAN_ANOMALY":"297.5130","FILE":"3681207","GP_ID":"219518974","EPOCH":"2022-12-04T06:47:42.444096","APOAPSIS":"548.249","INCLINATION":"53.0563","TIME_SYSTEM":"UTC","MEAN_MOTION":"15.06391297","OBJECT_NAME":"STARLINK-1710","TLE_LINE1":"1 46330U 20062F   22338.28313014  .00001004  00000-0  86287-4 0  9996","DECAY_DATE":null,"EPHEMERIS_TYPE":"0","OBJECT_ID":"2020-062F","ELEMENT_SET_NO":"999","PERIOD":"95.593","NORAD_CAT_ID":"46330","RA_OF_ASC_NODE":"305.0481","BSTAR":"0.00008628700000","COUNTRY_CODE":"US","ARG_OF_PERICENTER":"62.6007","PERIAPSIS":"546.231","TLE_LINE2":"2 46330  53.0563 305.0481 0001457  62.6007 297.5130 15.06391297125029","SITE":"AFETR","SEMIMAJOR_AXIS":"6925.375","REF_FRAME":"TEME","MEAN_MOTION_DOT":"0.00001004","CENTER_NAME":"EARTH","LAUNCH_DATE":"2020-09-03","MEAN_MOTION_DDOT":"0.0000000000000","MEAN_ELEMENT_THEORY":"SGP4","OBJECT_TYPE":"PAYLOAD","RCS_SIZE":"LARGE","CLASSIFICATION_TYPE":"U","ECCENTRICITY":"0.00014570"},{"REF_FRAME":"TEME","CENTER_NAME":"EARTH","MEAN_MOTION_DOT":"-0.00000613","SEMIMAJOR_AXIS":"6925.351","TLE_LINE2":"2 46331  53.0557 324.5836 0001432  70.9670 289.1474 15.06399219124753","SITE":"AFETR","COUNTRY_CODE":"US","PERIAPSIS":"546.224","ARG_OF_PERICENTER":"70.9670","RA_OF_ASC_NODE":"324.5836","BSTAR":"-0.00002229300000","OBJECT_TYPE":"PAYLOAD","ECCENTRICITY":"0.00014320","CLASSIFICATION_TYPE":"U","RCS_SIZE":"LARGE","MEAN_ELEMENT_THEORY":"SGP4","MEAN_MOTION_DDOT":"0.0000000000000","LAUNCH_DATE":"2020-09-03","MEAN_MOTION":"15.06399219","TIME_SYSTEM":"UTC","INCLINATION":"53.0557","APOAPSIS":"548.208","EPOCH":"2022-12-04T09:13:38.925984","FILE":"3681207","GP_ID":"219517225","MEAN_ANOMALY":"289.1474","REV_AT_EPOCH":"12475","NORAD_CAT_ID":"46331","OBJECT_ID":"2020-062G","PERIOD":"95.592","ELEMENT_SET_NO":"999","EPHEMERIS_TYPE":"0","OBJECT_NAME":"STARLINK-1719","DECAY_DATE":null,"TLE_LINE1":"1 46331U 20062G   22338.38447831 -.00000613  00000-0 -22293-4 0  9997"},{"PERIAPSIS":"545.955","ARG_OF_PERICENTER":"50.4726","COUNTRY_CODE":"US","BSTAR":"0.00005825200000","RA_OF_ASC_NODE":"324.5577","CENTER_NAME":"EARTH","MEAN_MOTION_DOT":"0.00000586","REF_FRAME":"TEME","SEMIMAJOR_AXIS":"6925.382","TLE_LINE2":"2 46332  53.0546 324.5577 0001865  50.4726 309.6427 15.06389185124756","SITE":"AFETR","MEAN_ELEMENT_THEORY":"SGP4","MEAN_MOTION_DDOT":"0.0000000000000","LAUNCH_DATE":"2020-09-03","ECCENTRICITY":"0.00018650","CLASSIFICATION_TYPE":"U","RCS_SIZE":"LARGE","OBJECT_TYPE":"PAYLOAD","GP_ID":"219517475","FILE":"3681207","MEAN_ANOMALY":"309.6427","REV_AT_EPOCH":"12475","MEAN_MOTION":"15.06389185","TIME_SYSTEM":"UTC","INCLINATION":"53.0546","APOAPSIS":"548.538","EPOCH":"2022-12-04T09:29:35.419776","EPHEMERIS_TYPE":"0","DECAY_DATE":null,"TLE_LINE1":"1 46332U 20062H   22338.39554884  .00000586  00000-0  58252-4 0  9997","OBJECT_NAME":"STARLINK-1721","NORAD_CAT_ID":"46332","PERIOD":"95.593","ELEMENT_SET_NO":"999","OBJECT_ID":"2020-062H"}];
